ONEWEB-0171             
1 48070U 21025AE  25075.49564424 -.00000411  00000+0 -11609-2 0  9992
2 48070  87.8922  51.2151 0001957  81.3231 278.8120 13.13470657193538
ONEWEB-0174             
1 48072U 21025AG  25075.45672966  .00000375  00000+0  99174-3 0  9992
2 48072  87.8922  51.2030 0001789  85.2625 274.8708 13.13471416193744
ONEWEB-0175             
1 48073U 21025AH  25075.41102028 -.00000231  00000+0 -66689-3 0  9994
2 48073  87.8917  51.1850 0002179  79.1642 280.9732 13.13466943193398
ONEWEB-0177             
1 48074U 21025AJ  25075.42284774 -.00000683  00000+0 -19062-2 0  9998
2 48074  87.8918  51.1944 0001647  79.2284 280.9031 13.13470461193589
ONEWEB-0178             
1 48075U 21025AK  25075.44162085  .00000200  00000+0  51313-3 0  9990
2 48075  87.8924  51.2279 0001772  78.5585 281.5743 13.13473338193633
ONEWEB-0108             
1 48076U 21025AL  25075.47700779 -.00000026  00000+0 -10731-3 0  9999
2 48076  87.8918  51.1794 0001913  91.7099 268.4249 13.13469045193569
ONEWEB-0169             
1 48077U 21025AM  25075.43300895 -.00000075  00000+0 -24072-3 0  9998
2 48077  87.8921  51.2055 0001933  91.6851 268.4499 13.13467458192216
